[{"OBJECT_NAME":"STARLINK-35577","OBJECT_ID":"2025-265Y","EPOCH":"2026-03-09T22:48:51.433056","MEAN_MOTION":15.27579076,"ECCENTRICITY":5.161e-5,"INCLINATION":42.9964,"RA_OF_ASC_NODE":276.4329,"ARG_OF_PERICENTER":50.9158,"MEAN_ANOMALY":309.1739,"EPHEMERIS_TYPE":0,"CLASSIFICATION_TYPE":"U","NORAD_CAT_ID":66538,"ELEMENT_SET_NO":999,"REV_AT_EPOCH":1715,"BSTAR":0.00089421652,"MEAN_MOTION_DOT":0.00024426,"MEAN_MOTION_DDOT":0},{"OBJECT_NAME":"SL-3 R\/B","OBJECT_ID":"1983-003B","EPOCH":"2026-03-09T21:31:00.897888","MEAN_MOTION":15.34640469,"ECCENTRICITY":0.00285789,"INCLINATION":81.155,"RA_OF_ASC_NODE":261.9078,"ARG_OF_PERICENTER":155.4571,"MEAN_ANOMALY":204.8036,"EPHEMERIS_TYPE":0,"CLASSIFICATION_TYPE":"U","NORAD_CAT_ID":13771,"ELEMENT_SET_NO":999,"REV_AT_EPOCH":35642,"BSTAR":0.00033440366,"MEAN_MOTION_DOT":0.00011405,"MEAN_MOTION_DDOT":0}]
